GHGSAT-C1               
1 46278U 20061G   26194.82861569  .00028181  00000+0  20453-3 0  9999
2 46278  97.2100 280.8651 0000981 174.7826 185.3448 15.73368758327661
GHGSAT-C2               
1 47509U 21006DA  26194.63058584  .00003655  00000+0  99568-4 0  9994
2 47509  97.2135 241.4440 0006759  79.6283 280.5724 15.38096044303919
GHGSAT-C3               
1 52737U 22057F   26194.84442221  .00003846  00000+0  11698-3 0  9997
2 52737  97.6625 341.5096 0006412  39.5560 320.6149 15.34669052229627
GHGSAT-C5               
1 52744U 22057N   26194.88374699  .00003788  00000+0  11533-3 0  9995
2 52744  97.6712 343.1553 0007111  36.4017 323.7707 15.34645892229639
GHGSAT-C4               
1 52746U 22057Q   26194.86513547  .00003780  00000+0  11505-3 0  9993
2 52746  97.6553 340.3354 0006284  23.8098 336.3434 15.34655939229631
GHGSAT-C8               
1 56186U 23054J   26194.83027550  .00009831  00000+0  15503-3 0  9999
2 56186  97.2970 104.5189 0003124   7.3065 352.8234 15.53744643182573
GHGSAT-C6               
1 56204U 23054AC  26194.86087332  .00010500  00000+0  16558-3 0  9993
2 56204  97.3031 105.2522 0003597 314.3485  45.7473 15.53722309182593
GHGSAT-C7               
1 56209U 23054AH  26194.85667715  .00007018  00000+0  12502-3 0  9991
2 56209  97.2979 103.5734 0005087 310.6418  49.4391 15.50426969182528
GHGSAT-C12              
1 64529U 25135B   26194.83770995  .00001883  00000+0  89458-4 0  9999
2 64529  97.4770 309.4137 0006435  84.6635 275.5334 15.20439929 58870
GHGSAT-C13              
1 64548U 25135W   26194.82629468  .00003151  00000+0  14360-3 0  9996
2 64548  97.4803 310.0147 0001956  68.8793 291.2652 15.21393982 58900
