{"fetched_at":"2026-07-14T06:34:42.834Z","source":"https://celestrak.org/NORAD/elements/gp.php?NAME=GHGSAT&FORMAT=JSON","constellation":"ghgsat","records":[{"OBJECT_NAME":"GHGSAT-C1","OBJECT_ID":"2020-061G","EPOCH":"2026-07-13T19:53:12.395616","CLASSIFICATION_TYPE":"U","MEAN_MOTION":15.73368758,"ECCENTRICITY":0.0000981,"INCLINATION":97.21,"RA_OF_ASC_NODE":280.8651,"ARG_OF_PERICENTER":174.7826,"MEAN_ANOMALY":185.3448,"EPHEMERIS_TYPE":0,"NORAD_CAT_ID":46278,"ELEMENT_SET_NO":999,"REV_AT_EPOCH":32766,"BSTAR":0.00020453,"MEAN_MOTION_DOT":0.00028181,"MEAN_MOTION_DDOT":0},{"OBJECT_NAME":"GHGSAT-C2","OBJECT_ID":"2021-006DA","EPOCH":"2026-07-13T15:08:02.616576","CLASSIFICATION_TYPE":"U","MEAN_MOTION":15.38096044,"ECCENTRICITY":0.0006759,"INCLINATION":97.2135,"RA_OF_ASC_NODE":241.444,"ARG_OF_PERICENTER":79.6283,"MEAN_ANOMALY":280.5724,"EPHEMERIS_TYPE":0,"NORAD_CAT_ID":47509,"ELEMENT_SET_NO":999,"REV_AT_EPOCH":30391,"BSTAR":0.000099568,"MEAN_MOTION_DOT":0.00003655,"MEAN_MOTION_DDOT":0},{"OBJECT_NAME":"GHGSAT-C3","OBJECT_ID":"2022-057F","EPOCH":"2026-07-13T20:15:58.078944","CLASSIFICATION_TYPE":"U","MEAN_MOTION":15.34669052,"ECCENTRICITY":0.0006412,"INCLINATION":97.6625,"RA_OF_ASC_NODE":341.5096,"ARG_OF_PERICENTER":39.556,"MEAN_ANOMALY":320.6149,"EPHEMERIS_TYPE":0,"NORAD_CAT_ID":52737,"ELEMENT_SET_NO":999,"REV_AT_EPOCH":22962,"BSTAR":0.00011698,"MEAN_MOTION_DOT":0.00003846,"MEAN_MOTION_DDOT":0},{"OBJECT_NAME":"GHGSAT-C5","OBJECT_ID":"2022-057N","EPOCH":"2026-07-13T21:12:35.739936","CLASSIFICATION_TYPE":"U","MEAN_MOTION":15.34645892,"ECCENTRICITY":0.0007111,"INCLINATION":97.6712,"RA_OF_ASC_NODE":343.1553,"ARG_OF_PERICENTER":36.4017,"MEAN_ANOMALY":323.7707,"EPHEMERIS_TYPE":0,"NORAD_CAT_ID":52744,"ELEMENT_SET_NO":999,"REV_AT_EPOCH":22963,"BSTAR":0.00011533,"MEAN_MOTION_DOT":0.00003788,"MEAN_MOTION_DDOT":0},{"OBJECT_NAME":"GHGSAT-C4","OBJECT_ID":"2022-057Q","EPOCH":"2026-07-13T20:45:47.704608","CLASSIFICATION_TYPE":"U","MEAN_MOTION":15.34655939,"ECCENTRICITY":0.0006284,"INCLINATION":97.6553,"RA_OF_ASC_NODE":340.3354,"ARG_OF_PERICENTER":23.8098,"MEAN_ANOMALY":336.3434,"EPHEMERIS_TYPE":0,"NORAD_CAT_ID":52746,"ELEMENT_SET_NO":999,"REV_AT_EPOCH":22963,"BSTAR":0.00011505,"MEAN_MOTION_DOT":0.0000378,"MEAN_MOTION_DDOT":0},{"OBJECT_NAME":"GHGSAT-C8","OBJECT_ID":"2023-054J","EPOCH":"2026-07-13T19:55:35.803200","CLASSIFICATION_TYPE":"U","MEAN_MOTION":15.53744643,"ECCENTRICITY":0.0003124,"INCLINATION":97.297,"RA_OF_ASC_NODE":104.5189,"ARG_OF_PERICENTER":7.3065,"MEAN_ANOMALY":352.8234,"EPHEMERIS_TYPE":0,"NORAD_CAT_ID":56186,"ELEMENT_SET_NO":999,"REV_AT_EPOCH":18257,"BSTAR":0.00015503,"MEAN_MOTION_DOT":0.00009831,"MEAN_MOTION_DDOT":0},{"OBJECT_NAME":"GHGSAT-C6","OBJECT_ID":"2023-054AC","EPOCH":"2026-07-13T20:39:39.454848","CLASSIFICATION_TYPE":"U","MEAN_MOTION":15.53722309,"ECCENTRICITY":0.0003597,"INCLINATION":97.3031,"RA_OF_ASC_NODE":105.2522,"ARG_OF_PERICENTER":314.3485,"MEAN_ANOMALY":45.7473,"EPHEMERIS_TYPE":0,"NORAD_CAT_ID":56204,"ELEMENT_SET_NO":999,"REV_AT_EPOCH":18259,"BSTAR":0.00016558,"MEAN_MOTION_DOT":0.000105,"MEAN_MOTION_DDOT":0},{"OBJECT_NAME":"GHGSAT-C7","OBJECT_ID":"2023-054AH","EPOCH":"2026-07-13T20:33:36.905760","CLASSIFICATION_TYPE":"U","MEAN_MOTION":15.50426969,"ECCENTRICITY":0.0005087,"INCLINATION":97.2979,"RA_OF_ASC_NODE":103.5734,"ARG_OF_PERICENTER":310.6418,"MEAN_ANOMALY":49.4391,"EPHEMERIS_TYPE":0,"NORAD_CAT_ID":56209,"ELEMENT_SET_NO":999,"REV_AT_EPOCH":18252,"BSTAR":0.00012502,"MEAN_MOTION_DOT":0.00007018,"MEAN_MOTION_DDOT":0},{"OBJECT_NAME":"GHGSAT-C12","OBJECT_ID":"2025-135B","EPOCH":"2026-07-13T20:06:18.139680","CLASSIFICATION_TYPE":"U","MEAN_MOTION":15.20439929,"ECCENTRICITY":0.0006435,"INCLINATION":97.477,"RA_OF_ASC_NODE":309.4137,"ARG_OF_PERICENTER":84.6635,"MEAN_ANOMALY":275.5334,"EPHEMERIS_TYPE":0,"NORAD_CAT_ID":64529,"ELEMENT_SET_NO":999,"REV_AT_EPOCH":5887,"BSTAR":0.000089458,"MEAN_MOTION_DOT":0.00001883,"MEAN_MOTION_DDOT":0},{"OBJECT_NAME":"GHGSAT-C13","OBJECT_ID":"2025-135W","EPOCH":"2026-07-13T19:49:51.860352","CLASSIFICATION_TYPE":"U","MEAN_MOTION":15.21393982,"ECCENTRICITY":0.0001956,"INCLINATION":97.4803,"RA_OF_ASC_NODE":310.0147,"ARG_OF_PERICENTER":68.8793,"MEAN_ANOMALY":291.2652,"EPHEMERIS_TYPE":0,"NORAD_CAT_ID":64548,"ELEMENT_SET_NO":999,"REV_AT_EPOCH":5890,"BSTAR":0.0001436,"MEAN_MOTION_DOT":0.00003151,"MEAN_MOTION_DDOT":0}]}
